code,name,zip_code,prefecture_id,city,address,tel
10016,紫原店,8900082,46,鹿児島市,紫原5丁目24-1,0992137107
10030,町坪店,6700984,28,姫路市,町坪443-1,0792953191
10047,神郷店,7920882,38,新居浜市,又野1丁目1-1,0897671160
10085,宮野恋路店,7530011,35,山口市,宮野下1019-1,0839343015
10092,吉塚店,8120041,40,福岡市,博多区吉塚5丁目13-28,0926268427
10108,東温店,7910216,38,東温市,野田2丁目104-1,0899605223
10115,土庄店,7614121,37,小豆郡,土庄町淵崎1570-1,0879625670
10122,長船店,7014264,33,瀬戸内市,長船町土師220-1,0869268780
10139,但馬日高店,6695307,28,豊岡市,日高町松岡88,0796431050
10153,八王寺店,8600831,43,熊本市,中央区八王寺町2-13,0963775021
10160,水谷店,6512121,28,神戸市西区,水谷3丁目3-13,0789152015
10177,榛原店,6330241,29,宇陀市,榛原下井足1396-3,0745851877
10191,大江店,8620971,43,熊本市,中央区大江2丁目16-9,0962115760
10207,大宮店,6292502,26,京丹後市,大宮町河辺3139-1,0772689090
10214,宇美店,8112128,40,糟屋郡,宇美町宇美中央2丁目22-20,0929576026
10238,かわうち店,7310102,34,広島市,安佐南区川内5丁目31-16,0828316801
10245,西谷山店,8910117,46,鹿児島市,西谷山1丁目1-4,0992635201
10252,川南店,8891301,45,児湯郡,川南町川南13569-7,0983470045
10276,八田店,8130031,40,福岡市,東区八田2丁目39-24,0926638880
10283,望町店,7440072,35,下松市,望町2丁目5-29,0833483900
10290,沼南店,8000205,40,北九州市,小倉南区沼南町1丁目14-3,0934740231
10306,木の岡店,5200103,25,大津市,木の岡町51-17,0775773733
10313,唐津店,8470041,41,唐津市,千代田町2564-1,0955702525
10320,へそ店,5203031,25,栗東市,綣4丁目2-21,0775512565
10337,五條今井店,6370004,29,五條市,今井3丁目3-7,0747266471
10344,石原店,6200804,26,福知山市,石原2丁目13,0773201120
10351,久保店,5150044,24,松阪市,久保町1261,0598601820
10368,山川店,8910515,46,指宿市,山川小川1503,0993276788
10375,網野店,6293102,26,京丹後市,網野町下岡629,0772790011
10382,若葉店,8950063,46,薩摩川内市,若葉町4-50,0996211802
10399,人吉インター店,8680021,43,人吉市,鬼木町1014-1,0966260545
10405,岡垣吉木店,8114234,40,遠賀郡,岡垣町高倉654-1,0932811686
10412,三重店,8797105,44,豊後大野市,三重町芦刈481-79,0974249080
10429,井門店,7911114,38,松山市,井門町19-2,0899573022
10436,飯山店,7620082,37,丸亀市,飯山町川原923-1,0877980080
10443,八反田店,8618029,43,熊本市,東区西原1丁目22-64,0962136071
10467,松美町店,7530053,35,山口市,松美町2-80,0839013121
10474,片江店,8140142,40,福岡市,城南区片江4丁目16-34,0928740501
10481,丹波春日店,6694131,28,丹波市,春日町七日市623-1,0795740611
10498,名張西原店,5180603,24,名張市,西原町2620-3,0595672856
10504,英賀店,6728078,28,姫路市,飾磨区英賀乙21-2,0792315411
10511,糸貫店,5010406,21,本巣市,三橋5丁目45,0583200525
10528,西条中央店,7390025,34,東広島市,西条中央7丁目2-14,0824314115
10535,千代田店,7311533,34,山県郡,北広島町有田1033-1,0826727776
10542,久世店,7193201,33,真庭市,久世3295-5,0867427100
10559,吾田店,8870022,45,日南市,上平野町1丁目10-4,0987211530
10566,みやま高田店,8390215,40,みやま市,高田町濃施580,0944645002
10573,氷見店,7930072,38,西条市,氷見乙2027,0897577150
10580,樋脇店,8951202,46,薩摩川内市,樋脇町塔之原10834,0996210818
10597,玉島爪崎店,7100252,33,倉敷市,玉島爪崎935-1,0865255311
10603,三苫店,8110201,40,福岡市,東区三苫4丁目2-39,0926055351
10610,坂出元町店,7620045,37,坂出市,元町3丁目4-30,0877590050
10627,大田駅南店,6940064,32,大田市,大田町大田イ25-1,0854840770
10634,野方店,8190043,40,福岡市,西区野方1丁目3-10,0928948404
10641,道徳橋店,4570841,23,名古屋市,南区豊田5丁目14-1,0526982650
10658,中井店,8030836,40,北九州市,小倉北区中井4丁目10-9,0935624464
10665,大島北店,8800824,45,宮崎市,大島町493,0985610087
10672,古浜店,7220002,34,尾道市,古浜町7-21,0848211002
10689,貝塚堤店,5970054,27,貝塚市,堤154,0724369023
10696,八幡中山店,5260021,25,長浜市,八幡中山町305-4,0749644040
10702,鳥飼西店,5660072,27,摂津市,鳥飼西2丁目37-10,0726500750
10719,北琴芝店,7550036,35,宇部市,北琴芝2丁目15-8,0836376105
10726,大垣ベルプラザ店,5030026,21,大垣市,室村町3丁目74-5,0584833002
10733,南原店,8000355,40,京都郡,苅田町南原1596,0934352701
10740,吉久木店,8530031,42,五島市,吉久木町458,0959740037
10757,温品店,7320033,34,広島市,東区温品2丁目2-33,0825086160
10764,玖珂店,7420344,35,岩国市,玖珂町1116-1,0827810225
10771,瀬古店,4630068,23,名古屋市,守山区瀬古1丁目813-1,0527585233
10788,宇多津店,7690206,37,綾歌郡,宇多津町浜六番丁91-19,0877493225
10795,高富店,5012105,21,山県市,高富井戸尻2500,0581230522
10801,横島店,8650072,43,玉名市,横島町横島2286-4,0968713711
10818,総社東店,7191125,33,総社市,井手1128-2,0866903811
10825,都町店,8830043,45,日向市,都町3-7,0982501033
10832,西脇野村店,6770054,28,西脇市,野村町777-1,0795245010
10849,北今宿店,6700057,28,姫路市,北今宿2丁目3-45,0792990660
10856,周船寺店,8190373,40,福岡市,西区周船寺1丁目3-10,0928057063
10863,敬川店,6993162,32,江津市,敬川町1307-13,0855543008
10870,岡寺店,6340043,29,橿原市,五条野町333-14,0744288017
10887,仏生山店,7618078,37,高松市,仏生山町甲1467,0878155015
10894,東町店,5180711,24,名張市,東町1751-1,0595621017
10900,有田川店,6430021,30,有田郡,有田川町下津野1000,0737533484
10917,城山台店,6190218,26,木津川市,城山台13丁目25-5,0774718668
10924,大矢知店,5108034,24,四日市市,大矢知町1018-1,0593617077
10931,葛本店,6340007,29,橿原市,葛本町308-1,0744200878
10948,中曽根店,7990413,38,四国中央市,中曾根町2471-1,0896246810
10955,坂本町店,7680067,37,観音寺市,坂本町5丁目8-34,0875230770
10962,相原店,8710022,44,中津市,相原3306,0979850711
10979,武雄北方店,8492201,41,武雄市,北方町志久2042-5,0954360123
10986,茶屋町店,7101101,33,倉敷市,茶屋町1625-1,0864201125
10993,兜台店,6190224,26,木津川市,兜台6丁目3-1,0774751755
11013,吉成店,6800864,31,鳥取市,吉成725-1,0857374188
11020,谷上店,6511246,28,神戸市,北区谷上西町23-5,0785833008
11037,荘島店,8300042,40,久留米市,荘島町315-29,0942365905
11044,鹿屋西原店,8930064,46,鹿屋市,西原3丁目1-1,0994421088
11051,加茂店,7202412,34,福山市,加茂町下加茂22-1,0849702003
11068,日当山店,8995115,46,霧島市,隼人町東郷1136-2,0995446105
11075,上井店,6820024,31,倉吉市,伊木273-1,0858275393
11082,中野店,5270015,25,東近江市,中野町603-1,0748201666
11099,小浜木崎店,9170025,18,小浜市,木崎13-6,0770562337
11105,出合店,6340013,29,橿原市,出合町18-1,0744201178
11112,真備店,7101313,33,倉敷市,真備町川辺289-1,0866971718
11129,八幡屋店,5520014,27,大阪市,港区八幡屋3丁目17-15,0643957611
11136,江口店,7920005,38,新居浜市,江口町3-1,0897651510
11143,八幡萩原店,8060059,40,北九州市,八幡西区萩原1丁目2-8,0936446598
11150,西明寺店,5180809,24,伊賀市,西明寺3248,0595265615
11167,挾間北方店,8795518,44,由布市,挾間町北方下角100-3,0975863220
11174,大東店,6991251,32,雲南市,大東町大東899-5,0854438015
11181,野上野店,6496216,30,岩出市,野上野421-3,0736690885
11198,竹鼻店,5016241,21,羽島市,竹鼻町狐穴1244,0583940310
11204,松前店,7913101,38,伊予郡,松前町南黒田415-1,0899840510
11211,直川店,6408481,30,和歌山市,直川572-1,0734645470
11228,伊孑志店,6650033,28,宝塚市,伊孑志4丁目7-25,0797731550
11235,天神大丸前店,8100004,40,福岡市,中央区渡辺通5丁目24-30,0927394176
11242,曽師店,8800841,45,宮崎市,吉村町ハシテ甲2386-30,0985353260
11259,大治店,4901137,23,海部郡,大治町堀之内半之返876,0524626101
11266,下山門店,8190054,40,福岡市,西区上山門1丁目2-43,0928952335
11273,千早駅店,8130044,40,福岡市,東区千早4丁目26-20,0926742205
11280,美津島店,8170326,42,対馬市,美津島町根緒468-6,0920528515
11297,山本店,8470002,41,唐津市,山本1743-1,0955703750
11303,虹ケ浜店,7430022,35,光市,虹ケ浜1丁目6-28,0833745670
11310,天神山店,8160855,40,春日市,天神山3丁目2,0925887216
11327,門川店,8890614,45,東臼杵郡,門川町上町4丁目43-1,0982504170
11334,松崎店,8130035,40,福岡市,東区松崎2丁目1-18,0926740018
11341,志段味店,4630003,23,名古屋市,守山区下志段味生下り2287-71,0527391030
11365,長松店,5030997,21,大垣市,長松町小柳1251-2,0584930017
11372,東大和町店,7500066,35,下関市,東大和町1丁目4-45,0832610255
11389,久万ノ台店,7918016,38,松山市,久万ノ台263-1,0899111751
11396,多良見店,8590401,42,諫早市,多良見町化屋1888,0957285208
11402,穂積店,5010222,21,瑞穂市,別府1560-1,0583293003
11419,一里山店,5202153,25,大津市,一里山7丁目17-1,0775483005
11426,高知神田店,7808040,39,高知市,神田621-1,0888316551
11433,山瀬店,8892533,45,日南市,星倉4623-1,0987321030
11440,彦根駅東店,5220010,25,彦根市,駅東町3-3,0749215088
11457,大牟田北店,8370905,40,大牟田市,甘木12-1,0944413572
11464,高月店,5290205,25,長浜市,高月町唐川13-1,0749858100
11471,川原崎店,8820033,45,延岡市,川原崎町225,0982239339
11488,高山店,8931203,46,肝属郡,肝付町後田2370-1,0994688520
11495,与謝野店,6292303,26,与謝郡,与謝野町石川466,0772440021
11501,亀崎店,8830068,45,日向市,亀崎西1丁目77-1,0982501770
11518,新居浜松木店,7920829,38,新居浜市,松木町3-27,0897316067
11525,愛知川店,5291321,25,愛知郡,愛荘町豊満1259,0749428488
11532,阿弥陀店,6760825,28,高砂市,阿弥陀町北池32,0794488680
11549,御幸店,7200004,34,福山市,御幸町中津原1767-1,0849610122
11556,大隅有明店,8997402,46,志布志市,有明町野井倉8299-2,0994716501
11563,又丸店,5011152,21,岐阜市,又丸20-1,0582930052
11570,薮田西店,5008386,21,岐阜市,薮田西1丁目7-3,0582686001
11587,原山台店,5900132,27,堺市,南区原山台5丁11-3,0722957120
11594,旭町店,7400024,35,岩国市,旭町2-9-53,0827305155
11600,なんば三丁目店,5420076,27,大阪市,中央区難波3丁目2-35,0666308817
11617,高松東店,8700916,44,大分市,高松東2-6-1,0975731158
11624,鴨方店,7190243,33,浅口市,鴨方町鴨方2223,0865459121
11631,赤江店,8800916,45,宮崎市,恒久469-1,0985642270
11648,富岡店,7140092,33,笠岡市,富岡172-5,0865673010
11655,加美北店,5470001,27,大阪市,平野区加美北7丁目5-12,0643038636
11662,松井山手店,6100356,26,京田辺市,山手中央3-1,0774647775
11679,御国野店,6710232,28,姫路市,御国野町御着678-2,0792517811
11686,三加茂店,7794702,36,三好郡,東みよし町西庄安広7,0883826670
11693,鈴鹿市役所前店,5130801,24,鈴鹿市,神戸1丁目12-24,0593816635
11709,吉備津店,7011213,33,岡山市,北区西辛川406-1,0862849010
11716,千早店,8130044,40,福岡市,東区千早1丁目47-8,0926744578
11723,大門店,8820027,45,延岡市,大門町246,0982330633
11754,川手店,7460009,35,周南市,川手2丁目10-1,0834610022
11761,東平島店,7090631,33,岡山市,東区東平島1419-1,0862979310
11778,延岡共栄店,8820872,45,延岡市,愛宕町3丁目4588-1,0982239566
11785,太宰府店,8180117,40,太宰府市,宰府1丁目14-29,0929183895
11792,本通店,7300035,34,広島市,中区本通4-8マルタカビル1階,0825458007
11808,中洲五丁目店,8100801,40,福岡市,博多区中洲5丁目2-1,0922730863
11815,大黒田店,5150063,24,松阪市,大黒田町701,0598251757
11822,惣領店,8612233,43,上益城郡,益城町惣領1171-2,0962878077
11839,奈良大淀店,6380811,29,吉野郡,大淀町土田224-1,0747542150
11846,高野口店,6497203,30,橋本市,高野口町名古曽624-1,0736441080
11853,坂出昭和町店,7620004,37,坂出市,昭和町1丁目1-1,0877590618
11860,広田店,8593223,42,佐世保市,広田2丁目388-1,0956205620
11877,隈之城店,8950036,46,薩摩川内市,矢倉町4194,0996211310
11884,沖今宿店,7470013,35,防府市,沖今宿2丁目2-5,0835272835
11907,茶屋の原店,8071134,40,北九州市,八幡西区茶屋の原4丁目17-15,0936191004
11914,大聖寺店,9220861,17,加賀市,大聖寺地方町1丁目10-5,0761722754
11921,野田店,8820805,45,延岡市,野田1丁目1-3,0982231877
11938,西浦店,5830863,27,羽曳野市,蔵之内748-1,0729590069
11945,財光寺店,8830021,45,日向市,財光寺953-8,0982555010
11952,佐用店,6795301,28,佐用郡,佐用町佐用87,0790820058
11969,白銀店,8020074,40,北九州市,小倉北区白銀1丁目8-10,0939327929
11976,西二見駅店,6740095,28,明石市,二見町西二見駅前3丁目26,0789490135
11983,和泉和気店,5940073,27,和泉市,和気町4丁目24-2,0725401277
11990,高島店,7038242,33,岡山市,中区高島2丁目1-14,0862753100
12003,光井店,7430013,35,光市,中央2丁目9-28,0833745260
12010,上小泉店,9360053,16,滑川市,上小泉39-1,0764753570
12027,小杉駅店,9390341,16,射水市,三ヶ2595-1,0766568010
12034,三浜店,7028036,33,岡山市,南区三浜町1丁目7-9,0862617220
12041,八百富店,4430055,23,蒲郡市,八百富町15-15,0533663112
12058,新別府店,8800834,45,宮崎市,新別府町麓358,0985613360
12065,粉河店,6496541,30,紀の川市,井田40-1,0736738007
12072,広尾駅店,1500012,13,渋谷区,広尾5丁目4-12,0362771067
12089,西葛西駅店,1340088,13,江戸川区,西葛西3丁目15-12,0368085547
12096,大阪鶴見店,5380053,27,大阪市,鶴見区鶴見6丁目3-15,0642575011
12102,中野サンモール店,1640001,13,中野区,中野5丁目67-10,0359425135
12119,七塚店,9291173,17,かほく市,遠塚ロ17-7,0762858015
12126,小束山店,6550002,28,神戸市,垂水区小束山868-884,0787942080
12133,山崎三津店,6712516,28,宍粟市,山崎町三津120,0790640810
12140,大崎店,7470065,35,防府市,大崎357,0835272517
12157,富任店,7596613,35,下関市,富任町2丁目3-45,0832621255
12164,花中町店,4418032,23,豊橋市,花中町21,0532343031
12218,天神橋店,5300041,27,大阪市,北区天神橋5丁目5-8,0663582110
12225,駒川店,5460043,27,大阪市,東住吉区駒川5丁目17-10,0666985115
12232,中陰店,6680013,28,豊岡市,中陰644,0796265501
12249,大野店,7390488,34,廿日市市,大野棚田1509,0829505388
12256,雲山店,6800862,31,鳥取市,雲山300-7,0857251890
12263,太秦桜が丘店,5720840,27,寝屋川市,太秦桜が丘32-43,0728113027
12270,下阪本店,5200105,25,大津市,下阪本1丁目17-1,0775771211
12287,東津田店,6900011,32,松江市,東津田町寺後1241-3,0852202133
12294,長田町店,9230034,17,小松市,長田町ロ100,0761201505
12300,東加古川店,6750122,28,加古川市,別府町別府619-6,0794414122
12317,四条河原町店,6008002,26,京都市,下京区御旅町17,0752316161
12331,那加桐野店,5040906,21,各務原市,那加桐野外二ケ所入会地8-16,0583802321
12348,芸濃店,5142211,24,津市,芸濃町椋本3095,0592661152
12355,原田駅店,8180024,40,筑紫野市,原田6丁目7-17,0929197028
12362,歌舞伎町一丁目店,1600021,13,新宿区,歌舞伎町1丁目5-2,0362338031
12379,東浜店,6780222,28,赤穂市,東浜町93,0791462606
12386,広畑店,6711125,28,姫路市,広畑区長町2丁目1-1,0792301530
12393,中通店,7250012,34,竹原市,下野町3208-5,0846235055
12409,神前店,6408314,30,和歌山市,神前123-1,0734755141
12416,枕崎桜木店,8980018,46,枕崎市,桜木町205-1,0993735166
12423,綾部店,6230043,26,綾部市,上延町八反37-1,0773402566
12478,北在家店,6750031,28,加古川市,加古川町北在家2676,0794563511
12485,岩井店,6200922,26,福知山市,岩井86-29,0773259066
12492,南紀白浜店,6492211,30,西牟婁郡,白浜町1629-1,0739822277
12522,御幣島店,5550012,27,大阪市,西淀川区御幣島5丁目2-19,0664764370
12539,小田部店,8140032,40,福岡市,早良区小田部7丁目8-17,0928321510
12546,甲南野田店,5203308,25,甲賀市,甲南町野田505-1,0748868353
12553,筥松店,8120061,40,福岡市,東区筥松3丁目5-12,0926249095
12560,尼寺店,6390261,29,香芝市,尼寺2丁目356-3,0745717303
12584,西出水店,8990213,46,出水市,西出水町1538-1,0996637521
12621,村久野店,4838322,23,江南市,村久野町鳥附44-1,0587512766
12638,大庄西町店,6600077,28,尼崎市,大庄西町4丁目4-21,0648696488
12645,高岡福岡店,9390121,16,高岡市,福岡町下老子751,0766641032
12652,植木南店,8610141,43,熊本市,北区植木町投刀塚321-9,0962153800
12669,北川添店,7810081,39,高知市,北川添23-25,0888847505
12676,大貞店,8710153,44,中津市,大貞389-5,0979276001
12683,新栄店,8900072,46,鹿児島市,新栄町18-5,0992144033
12690,沖映通り店,9000013,47,那覇市,牧志1丁目3-43,0988617800
12706,大井店,6210013,26,亀岡市,大井町並河堂又24,0771211030
12713,川之江店,7990113,38,四国中央市,妻鳥町1684-1,0896591088
12737,浮之城店,8800841,45,宮崎市,吉村町天神前甲142-3,0985612236
12744,内灘店,9200276,17,河北郡,内灘町緑台2丁目204-1,0762375509
12751,壱岐店,8115114,42,壱岐市,郷ノ浦町柳田触251-1,0920479007
12768,古国府店,8700844,44,大分市,古国府546-6,0975138015
12775,臼杵店,8750052,44,臼杵市,市浜1371,0972646120
12799,福富店,7000942,33,岡山市,南区豊成3丁目23-38,0862616122
12805,小黒町店,9160028,18,鯖江市,小黒町3丁目702,0778525802
12812,心斎橋店,5420085,27,大阪市,中央区心斎橋筋2丁目1-19,0662126810
12829,大内御堀店,7530043,35,山口市,宮島町8-5,0839953939
12836,東町小前店,8620901,43,熊本市,東区東町3丁目5-25,0962141267
12843,山代温泉店,9220242,17,加賀市,山代温泉北部2丁目29-1,0761778065
12867,西浜店,6410036,30,和歌山市,西浜886-1,0734417022
12874,坊城店,6340835,29,橿原市,東坊城町349−1,0744266003
12881,山の田店,7510838,35,下関市,山の田本町1-5,0832502500
12904,桔梗が丘店,5180752,24,名張市,蔵持町原出1347−1,0123456789
12911,大萱店,5202144,25,大津市,大萱7丁目8-1,0775472026
12928,石部店,5203106,25,湖南市,石部中央4丁目7-40,0748778010
12935,新湊店,9340005,16,射水市,善光寺19-5,0766843072
12942,常滑錦店,4790831,23,常滑市,錦町4丁目66-1,0569363321
12959,上津バイパス店,8300057,40,久留米市,藤光1丁目6-10,0942518070
12973,池袋東口店,1710022,13,豊島区,南池袋1丁目22-4 エイチエフ南池袋ビル,0367090066
12980,南武庫之荘店,6610033,28,尼崎市,南武庫之荘12丁目14-53,0664391415
12997,梅津店,6150935,26,京都市,右京区梅津徳丸町6-1,0758733378
13000,龍ケ崎ニュータウン店,3010855,8,龍ケ崎市,藤ケ丘1丁目1-12,0297868362
13017,淀江店,6893423,31,米子市,淀江町小波1209-5,0859566969
13024,上野毛店,1580091,13,世田谷区,中町2丁目41-13 リバーサイド上野毛,0364321618
13031,土器店,7630082,37,丸亀市,土器町東6丁目451,0877235711
13048,東串良店,8931611,46,肝属郡,東串良町岩弘2683-1,0994314167
13055,大江島店,6711231,28,姫路市,網干区大江島90-1,0792713150
13062,本巣北方店,5010458,21,本巣郡,北方町高屋1513,0583205030
13079,津島本町店,4960805,23,津島市,本町5丁目1-1,0567225513
13109,パニエ六甲店,6570036,28,神戸市,灘区桜口町3丁目1-1,0788228650
13123,下南部店,8618019,43,熊本市,東区下南部3丁目4-56,0962927780
13130,熱田店,6970062,32,浜田市,熱田町1689-1,0855247190
13147,布市店,9240808,17,白山市,布市2丁目66-1,0762748020
13154,名坂店,5280036,25,甲賀市,水口町東名坂283-1,0748651231
13161,加西北条店,6752324,28,加西市,北条町東南186-1,0790425838
13178,萱島店,5720823,27,寝屋川市,下木田町14-55,0728121008
13185,ゆめみ野店,3020039,8,取手市,ゆめみ野4丁目1-1,0297868884
13192,大広田店,9318453,16,富山市,中田2丁目3-40,0764375367
13208,祖師谷店,1570072,13,世田谷区,祖師谷1丁目36-7 シミズヤ祖師谷ビル,0357877062
13222,宇土店,8690452,43,宇土市,高柳町211-1,0964245004
13239,加世田店,8970001,46,南さつま市,加世田村原4丁目1-10,0993521028
13246,長与店,8512128,42,西彼杵郡,長与町嬉里郷40-1,0958405131
13253,梅原店,6408452,30,和歌山市,梅原38,0734577999
13260,恵那店,5097203,21,恵那市,長島町正家932-4,0573201155
13277,川口店,7200822,34,福山市,川口町4丁目12-9,0849811212
13284,曲川店,6340837,29,橿原市,曲川町6丁目16-20,0744202433
13291,柳田店,9350031,16,氷見市,柳田2107-3,0766913120
13307,上岡田店,4380045,22,磐田市,上岡田293,0538391505
13314,堀町店,3100903,8,水戸市,堀町1002-4,0293505780
13338,野田さくらの里店,2780048,12,野田市,桜の里2丁目5-7,0471993001
13376,東茶屋店,4550851,23,名古屋市,港区東茶屋3丁目127-1,0523095180
13383,錦帯橋店,7410062,35,岩国市,岩国2丁目8-33,0827442002
13390,金沢窪店,9218151,17,金沢市,窪4丁目450,0762011771
13406,二島店,8080103,40,北九州市,若松区二島1丁目4-30,0937721135
13413,北山店,5730171,27,枚方市,北山1丁目23-1,0728641707
13420,駿河台店,1010062,13,千代田区,神田駿河台2-1-45 ニュー駿河台ビル1階,0368117961
13444,松山別府店,7918056,38,松山市,別府町482,0899530343
13468,藤方店,5140815,24,津市,藤方1886-1,0592139966
13475,さくらの森店,3050019,8,つくば市,さくらの森1-3,0298697850
13482,入善店,9390627,16,下新川郡,入善町椚山744-1,0765748011
13499,大高南店,4598002,23,名古屋市,緑区森の里1丁目96-3,0526291516
13505,神辺店,7202122,34,福山市,神辺町新湯野24-5,0849603933
13512,北本本宿店,3640005,11,北本市,本宿1丁目98-1,0485016653
13529,瀬名店,4200912,22,静岡市,葵区東瀬名町6-6,0542673166
13536,人吉店,8680007,43,人吉市,下青井町388-12,0966333380
13543,甲賀市役所前店,5280005,25,甲賀市,水口町水口6195,0123456789
13550,綾田店,9300845,16,富山市,綾田町1丁目8-57,0764416105
13567,高津区役所前店,2130033,14,川崎市,高津区下作延2丁目7-30,0447409900
13574,山鹿店,8610533,43,山鹿市,古閑1029-1,0968-42-8077
13581,下の町店,7110906,33,倉敷市,児島下の町1丁目1-10,0864726767
13598,黒瀬店,7392625,34,東広島市,黒瀬町上保田87-1,0823812070
13604,新山店,3260063,9,足利市,新山町2262-2,0284227887
13611,東大洲店,7950064,38,大洲市,東大洲258-1,0893591214
13628,赤坂店,3270004,9,佐野市,赤坂町960-13,0283258888
13635,中神店,9391344,16,砺波市,中神3丁目36,0763323583
13659,木脇店,8801113,45,東諸県郡,国富町木脇282,0985366611
13666,和泉中央店,5940041,27,和泉市,いぶき野3丁目15-26,0725566360
13673,（調剤）大高南店,4598002,23,名古屋市,緑区森の里1丁目96-3,0526291517
13703,（調剤）高津区役所前店,2130033,14,川崎市,高津区下作延2丁目7-30,0447409901
13710,古屋店,6408435,30,和歌山市,古屋164,0734571080
13734,東郷店,4700162,23,愛知郡,東郷町春木白土89-2,0528007202
13741,道頓堀店,5420071,27,大阪市,中央区道頓堀1丁目4-22 クロードビル1階,0662138585
13758,川井町店,5150818,24,松阪市,川井町1023-1,0598255225
13765,玉島店,7138102,33,倉敷市,玉島1丁目6-1,0865252320
13772,明野店,8700165,44,大分市,明野北5丁目1-3,0975041557
13789,古知野店,4838271,23,江南市,古知野町桃源117,0587511710
13796,南郷店,8893207,45,日南市,南郷町東町8-1,0987219810
13802,屋久島店,8914207,46,熊毛郡,屋久島町小瀬田815-13,0997494111
13819,松原インター店,9999999,1,未定市,未定,9999999999
13857,大堤店,3060236,8,古河市,大堤1986-30,0280235117
13864,若水店,7920017,38,新居浜市,若水町1丁目2-45,0897315580
13871,南岩国店,7400034,35,岩国市,南岩国町5丁目27-7,0827343360
13888,オウラ店,3700603,10,邑楽郡,邑楽町中野2995-7,0276552248
13895,南高江店,9999999,1,未定市,未定,9999999999
13901,津高店,9999999,1,未定市,未定,9999999999
13918,せんげん台店,3430041,11,越谷市,千間台西3丁目3-37,0489716679
13925,上林店,9218835,17,野々市市,上林3丁目65街区2,0762184563
13932,明神店,9999999,1,未定市,未定,9999999999
13949,女沼店,9999999,1,未定市,未定,9999999999
13956,深井畑山店,9999999,1,未定市,未定,9999999999
13963,石動店,9999999,1,未定市,未定,9999999999
13970,森友店,9999999,1,未定市,未定,9999999999
13987,四箇郷店,9999999,1,未定市,未定,9999999999
13994,小俣店,9999999,1,未定市,未定,9999999999
14007,中丸店,4620056,23,名古屋市,北区中丸町2丁目22,0529109510
14021,南玉垣店,9999999,1,未定市,未定,9999999999
14038,新保店,9999999,1,未定市,未定,9999999999
14762,松山店,8820063,45,延岡市,古川町645-1,0982282777
16094,塩浜店,8820864,45,延岡市,塩浜町3-1737,0982280008
16117,財光寺南店,8830021,45,日向市,財光寺3413-9,0982502888
16537,神殿店,8821101,45,西臼杵郡,高千穂町三田井1270-2,0982729722
16551,岡富店,8820056,45,延岡市,岡富町113,0982239055
16629,大貫店,8820803,45,延岡市,大貫町3丁目1283,0982231455
17916,浜店,8820862,45,延岡市,浜町5078,0982355662
18838,日知屋店,8830013,45,日向市,新生町2-107,0982558115
20275,高松橋店,8800951,45,宮崎市,大塚町流合5100-7,0985503377
20534,田野店,8891701,45,宮崎市,田野町甲2984-1,0985646455
20541,大淀店,8800902,45,宮崎市,大淀2丁目76,0985642588
20664,高千穂店,8821101,45,西臼杵郡,高千穂町三田井75-1,0982731883
20855,柳丸店,8800844,45,宮崎市,柳丸町53-1,0985832848
21166,小松店,8800951,45,宮崎市,大塚町竹下506,0985623400
21586,清武店,8891601,45,宮崎市,清武町木原58-27,0985841017
21630,新富店,8891402,45,児湯郡,新富町三納代2489-1,0983215655
21869,大島店,8800824,45,宮崎市,大島町原ノ前1414-1,0985617081
22583,国富店,8801102,45,東諸県郡,国富町宮王丸149-1,0985306182
22972,高鍋平原店,8840006,45,児湯郡,高鍋町上江868,0983261660
23214,つきどの店,8810023,45,西都市,調殿1049-1,0983411101
23771,下田島店,8800211,45,宮崎市,佐土原町下田島10158-1,0985627780
24235,大坪店,8800933,45,宮崎市,大坪町尾崎2235-1,0985630131
24372,島之内店,8800121,45,宮崎市,島之内9915-3,0985363881
25041,佐土原店,8800212,45,宮崎市,佐土原町下那珂2711-26,0985627032
25768,吉村店,8800841,45,宮崎市,吉村町56街区3-1,0985265075
25836,木花店,8892151,45,宮崎市,熊野1556-1,0985638010
26789,宮崎空港店,8800912,45,宮崎市,赤江155-1,0985639009
26949,加納店,8891607,45,宮崎市,清武町加納1丁目5,0985674023
27182,高鍋樋渡店,8840002,45,児湯郡,高鍋町北高鍋2100-68,0983260230
27298,三宅店,8810003,45,西都市,右松2222-1,0983411030
27595,宮崎祇園店,8800024,45,宮崎市,祇園3-15-1,0985617920
28271,大塚台店,8800951,45,宮崎市,大塚町1123-1,0985623883
28332,源藤店,8800927,45,宮崎市,源藤町205-6,0985641003
30588,大堂津店,8893141,45,日南市,大堂津5丁目11-1,0987214818
30632,三股店,8891901,45,北諸県郡,三股町樺山4833-1,0986277733
30694,細野店,8860004,45,小林市,細野2825-4,0984210707
31424,郡元店,8850013,45,都城市,郡元町209,0986461885
31493,沖水店,8850002,45,都城市,太郎坊町1891-1,0986275265
31561,蓑原店,8850095,45,都城市,蓑原町8555-1,0986460788
32223,大王店,8850026,45,都城市,大王町3街区20,0986462698
32261,串間店,8880001,45,串間市,西方6809-3,0987711569
32391,早鈴店,8850055,45,都城市,早鈴町1652-1,0986462383
32407,油津店,8870011,45,日南市,瀬貝3丁目1-7,0987321671
32773,志比田店,8850093,45,都城市,志比田町5628,0986461173
33084,小林西店,8860004,45,小林市,細野1567-1,0984251558
33138,小林堤店,8860003,45,小林市,堤2997-6,0984211020
33312,都城栄町店,8850023,45,都城市,栄町1622-1,0986461660
34937,広原店,8850036,45,都城市,広原町4-3,0986450455
35422,樺山店,8891901,45,北諸県郡,三股町樺山4672-67,0986533110
35729,高城店,8851202,45,都城市,高城町穂満坊865,0986532006
36030,星倉店,8892533,45,日南市,星倉6丁目5-27,0987255959
37433,五十市店,8850084,45,都城市,五十町2278-1,0986466101
38201,小林上町店,8860007,45,小林市,真方454-1,0984250071
38379,えびの店,8894151,45,えびの市,向江567,0984255900
40525,日ノ出店,8770082,44,日田市,日ノ出町3-1,0973255393
40556,新地店,8750023,44,臼杵市,江無田231,0972647124
40563,大在店,8700265,44,大分市,竹下2丁目3-7,0975289413
40686,鶴見店,8740840,44,別府市,鶴見491-5,0977278611
40785,鶴居店,8710162,44,中津市,永添133-1,0979260728
40891,玖珠店,8794414,44,玖珠郡,玖珠町大隈175-1,0973739121
40914,中津北店,8710007,44,中津市,蛎瀬854-2,0979261970
41126,日出店,8791506,44,速見郡,日出町3878-4,0977280333
41133,大分高田店,8700118,44,大分市,下徳丸14,0975036404
41294,豊後高田店,8790617,44,豊後高田市,高田2252-2,0978230052
41447,佐伯女島店,8760823,44,佐伯市,女島区8903-1,0972205135
41485,賀来店,8700877,44,大分市,賀来1278-1,0975865335
41591,石垣店,8740919,44,別府市,石垣東5丁目2-45,0977735211
41669,新貝店,8700911,44,大分市,新貝5-18,0975559622
41690,杵築店,8730006,44,杵築市,大内4532-7,0978664123
41805,西大在店,8700242,44,大分市,角子南1丁目1-41,0975036805
42079,平田店,8740024,44,別府市,平田町4-3,0977276474
42253,森町店,8700127,44,大分市,森町3-3,0975036310
42468,荘園店,8740838,44,別府市,荘園6組-1,0977737890
42505,湯布院店,8795102,44,由布市,湯布院町川上1074-1,0977282911
42963,脇津留店,8760047,44,佐伯市,鶴岡西町2丁目325,0972200103
43229,わさだ店,8701151,44,大分市,市1267,0975888933
43441,中津中央店,8710030,44,中津市,中殿町3丁目1-3,0979252677
43458,天満店,8740906,44,別府市,天満町15-15,0977738733
43670,下郡店,8700955,44,大分市,下郡南3丁目6-11,0975678315
43687,友田店,8770077,44,日田市,南友田町962-1,0973255520
43748,四日市店,8790455,44,宇佐市,閤355,0978346117
43823,猪野店,8700134,44,大分市,猪野1252,0975035755
43939,国東店,8730511,44,国東市,国東町小原1926-2,0978732081
44134,津久見店,8792412,44,津久見市,高洲町16-23,0972850202
44189,三佐店,8700108,44,大分市,三佐3丁目2-10,0975036336
44264,坂ノ市店,8700307,44,大分市,坂ノ市中央3丁目4-10,0975243775
44400,大分新川店,8700100,44,大分市,勢家1396-41,0975406633
44523,柳ヶ浦店,8720033,44,宇佐市,住吉町1丁目10,0978387277
44608,中の島店,8760843,44,佐伯市,中の島1丁目7-7,0972203666
44646,大畑店,8740848,44,別府市,大畑10組,0977739177
45148,上宗方店,8701152,44,大分市,上宗方667-41,0975888245
45438,竹田店,8780025,44,竹田市,拝田原山下212,0974640108
45490,日出駅前店,8791505,44,速見郡,日出町川崎845-1,0977280131
45926,松岡店,8700125,44,大分市,松岡5180-1,0975259633
46190,宇佐店,8790456,44,宇佐市,辛島198-1,0978346096
46428,日田三和店,8770000,44,日田市,三和158-1,0973255022
46442,東元町店,8700841,44,大分市,六坊北町6-27,0975736101
46510,別府中島店,8740901,44,別府市,中島町8-2,0977735506
46527,汐見店,8700253,44,大分市,汐見2丁目34-31,0975289080
46602,下郡東店,8700953,44,大分市,下郡東1丁目5-20,0975543040
46848,江無田店,8750023,44,臼杵市,江無田1479-3,0972646084
46879,南荘園店,8740904,44,別府市,南荘園町25組,0977278831
46909,中津田尻店,8790123,44,中津市,田尻1186-1,0979269013
46923,戸次店,8797761,44,大分市,中戸次5111-5,0975867007
46930,やまなみ店,8740913,44,別府市,春木1組1,0977739009
47067,下郡バイパス店,8700943,44,大分市,片島378-1,0975038070
47302,佐伯常盤店,8760851,44,佐伯市,常盤東町7-7,0972204381
47326,城原店,8700267,44,大分市,城原1819-1,0975242260
47371,王子港町店,8700004,44,大分市,王子港町1-31,0975133188
47470,日田若宮店,8770000,44,日田市,竹田417-4,0973276464
47883,大分空港店,8730421,44,国東市,武蔵町糸原上神手4129-10,0978648107
47951,光吉店,8701132,44,大分市,光吉1173,0975039506
48088,鬼崎店,8795501,44,由布市,挾間町鬼崎182-1,0975863563
48217,玖珠山田店,8794412,44,玖珠郡,玖珠町山田10-1,0973739388
48262,玉川店,8770000,44,日田市,十二町792-5,0973256477
48699,森町バイパス店,8700127,44,大分市,森町526-1,0975240555
48781,西本町店,8790471,44,宇佐市,四日市380-1,0978346040
48910,寒田店,8701123,44,大分市,寒田1011-1,0975047060
50395,宇土店,8690452,43,宇土市,高柳町21-1,0964227180
50401,月出店,8620920,43,熊本市,東区月出1丁目6-8,0962131388
50425,菊陽店,8691101,43,菊池郡,菊陽町津久礼2204-1,0963492388
50616,荒尾市役所通店,8640057,43,荒尾市,大島5-2,0968637770
50654,亀場店,8630043,43,天草市,亀場町亀川1632-5,0969277550
50678,本渡北店,8630050,43,天草市,丸尾町11-4,0969270811
50715,高森店,8691602,43,阿蘇郡,高森町高森2078-1,0967630234
50739,免田店,8680408,43,球磨郡,あさぎり町免田東5043-1,0966431088
50845,長洲店,8690123,43,玉名郡,長洲町長洲2621,0968657110
50906,大津店,8691235,43,菊池郡,大津町室542-8,0963403887
50937,錦店,8680303,43,球磨郡,錦町西1030-1,0966286220
50968,水前寺駅通店,8620950,43,熊本市,中央区水前寺3丁目33-1,0962136611
51057,くまなん店,8600834,43,熊本市,南区江越2丁目16-6,0962788008
51071,託麻南店,8618038,43,熊本市,東区長嶺東3丁目2-47,0962927870
51088,光の森店,8691108,43,菊池郡,菊陽町光の森5丁目22-3,0963402773
51095,菊池店,8611331,43,菊池市,隈府546-1,0968237778
51170,人吉店,8680082,43,人吉市,中林町1898-1,0966283889
51200,水俣店,8670052,43,水俣市,港町2丁目36,0966689887
51217,阿蘇店,8692222,43,阿蘇市,西町849-1,0967355133
51248,津奈木店,8670001,43,水俣市,小津奈木472-1,0966620067
51378,新土河原店,8600056,43,熊本市,西区新土河原1丁目9-3,0963550670
51415,竜北店,8694812,43,八代郡,氷川町網道282-2,0965468711
51644,菊南店,8611102,43,合志市,須屋1910,0963412551
51828,鹿本店,8610304,43,山鹿市,鹿本町御宇田661,0968340311
51897,グリーンランド店,8640004,43,荒尾市,宮内1092-35,0968647550
51910,城南店,8614224,43,熊本市,南区城南町阿高312-3,0964582080
51958,合志店,8611112,43,合志市,幾久富1866-74,0962155338
51989,花園店,8600072,43,熊本市,西区花園5丁目3-11,0963259660
52054,東海学園前店,8620970,43,熊本市,東区渡鹿8丁目21-20,0963664711
52061,植木店,8610134,43,熊本市,北区植木町舞尾545-1,0962733376
52146,六田店,8650058,43,玉名市,六田13-4,0968710822
52290,九品寺店,8620976,43,熊本市,中央区九品寺3丁目15-46,0962115080
52337,徳王店,8600083,43,熊本市,北区大窪1丁目2-11,0963123755
52429,あさぎり店,8680424,43,球磨郡,あさぎり町上西37-1,0966457011
52559,麦島店,8660044,43,八代市,中北町3246-3,0965358750
52825,宇城店,8690502,43,宇城市,松橋町松橋197-1,0964327750
53198,玉名大倉店,8650022,43,玉名市,寺田16-1,0968727760
53266,瓦屋町店,8680025,43,人吉市,瓦屋町2406-1,0966220305
53280,松江店,8660883,43,八代市,松江町576,0965395088
53402,立願寺店,8650066,43,玉名市,山田2013-1,0968721122
53433,御船店,8613206,43,上益城郡,御船町辺田見153-1,0962824553
53624,田迎店,8620962,43,熊本市,南区田迎1丁目5-3,0962143022
53860,長嶺店,8618039,43,熊本市,東区長嶺南1丁目2-1,0963865181
54157,桜木店,8612118,43,熊本市,東区花立4丁目3-9,0962146631
54164,白藤店,8614112,43,熊本市,南区白藤3丁目2-1,0963203035
54300,横手店,8600046,43,熊本市,西区横手3丁目6-38,0963190130
54348,鏡店,8694701,43,八代市,千丁町太牟田2290-23,0965301040
54577,長嶺南店,8620920,43,熊本市,東区月出8丁目3-20,0963865380
54591,菊池南店,8611307,43,菊池市,片角296-3,0968246031
54706,美里店,8614411,43,下益城郡,美里町小筵920-1,0964347322
54812,大津バイパス店,8691233,43,菊池郡,大津町大津1311-1,0962938455
54911,松島店,8616102,43,上天草市,松島町合津7915-6,0969252100
55086,益城店,8612232,43,上益城郡,益城町馬水716-1,0962892116
55185,海士江店,8660893,43,八代市,海士江町2706-1,0965398980
55277,秋津店,8612102,43,熊本市,東区沼山津1丁目20-1,0963313515
55291,熊本嘉島店,8613106,43,上益城郡,嘉島町上島2187-2,0962352766
55604,内牧店,8692301,43,阿蘇市,内牧1208,0967357155
55642,野中店,8600059,43,熊本市,西区野中2丁目11-15,0962125388
55673,桜町店,8610501,43,山鹿市,山鹿629-3,0968428022
55710,にじの森店,8691112,43,菊池郡,菊陽町武蔵ヶ丘2丁目14-1,0963481330
55772,下硯川店,8615526,43,熊本市,北区下硯川2丁目7-88,0963125155
55826,諏訪町店,8630037,43,天草市,諏訪町7-16,0969277266
55987,高田店,8660073,43,八代市,本野町2134-3,0965396711
56014,芦北店,8695561,43,葦北郡,芦北町芦北2130,0966613350
56083,近見店,8614101,43,熊本市,南区近見7丁目6-1,0963190720
56168,津久礼店,8691101,43,菊池郡,菊陽町津久礼2803-1,0962135911
56687,島崎西店,8600073,43,熊本市,西区島崎5丁目2-14,0963125322
56755,多良木店,8680501,43,球磨郡,多良木町多良木2802,0966490570
56793,天明店,8614125,43,熊本市,南区奥古閑町280,0962286955
56885,大津室店,8691235,43,菊池郡,大津町室1401-1,0962920033
56892,岱明店,8690231,43,玉名市,岱明町庄山730,0968695123
57011,馬渡店,8620968,43,熊本市,南区馬渡1丁目11-1,0963346377
57141,宇土駅店,8690442,43,宇土市,城之浦町71-8,0964235535
57165,天草食場店,8630046,43,天草市,亀場町食場947,0969275121
57288,古閑中店,8660898,43,八代市,古閑中町940-1,0965307022
57349,戸島西店,8618043,43,熊本市,東区戸島西1丁目5-18,0963310190
57530,大矢野店,8693602,43,上天草市,大矢野町上1484-1,0964265560
57615,原万田店,8640001,43,荒尾市,原万田810-1,0968691170
57639,川登店,8640031,43,荒尾市,川登1925-1,0968656388
57646,松橋店,8690511,43,宇城市,松橋町曲野118-1,0964252077
57783,西寺店,8611323,43,菊池市,西寺1460-1,0968236121
57790,武蔵ケ丘店,8618001,43,熊本市,北区武蔵ケ丘6丁目4-3,0963481155
57943,島崎店,8600073,43,熊本市,中央区島崎1丁目8-25,0963193181
58186,清水亀井店,8618066,43,熊本市,北区清水亀井町20-14,0963412888
58315,武蔵野台店,8611112,43,合志市,幾久富1909-52,0963486111
58902,矢部店,8613543,43,上益城郡,山都町上寺2044,0967730011
60646,大佐野店,8180134,40,太宰府市,大佐野3丁目12-12,0929187611
60707,豊前店,8280027,40,豊前市,赤熊241-1,0979840427
60820,有田店,8140033,40,福岡市,早良区有田7丁目23-6,0928337655
61117,志免店,8112204,40,糟屋郡,志免町田富4丁目4-12,0929376860
61148,行事店,8240001,40,行橋市,行事6丁目1-1,0930269335
61155,筑紫野店,8180066,40,筑紫野市,永岡1550,0929185515
61230,福間店,8113218,40,福津市,手光南1丁目2092-2,0940358755
61308,田川松原店,8250002,40,田川市,伊田4954-3,0947506055
61339,博多南駅店,8111213,40,那珂川市,中原2丁目143,0929515777
61346,福岡宗像店,8113414,40,宗像市,光岡9-1,0940383088
61506,南ヶ丘店,8160956,40,大野城市,南大利2丁目9-10,0925892300
61513,折尾店,8070828,40,北九州市,八幡西区友田1丁目12-25,0936031112
61544,春町店,8120872,40,福岡市,博多区春町3丁目7-15,0925883453
61629,岡垣店,8114228,40,遠賀郡,岡垣町東松原2丁目1-1,0932815585
61674,穂波店,8200076,40,飯塚市,太郎丸933,0948218830
61766,甘木店,8380062,40,朝倉市,堤1025,0946215600
61780,小郡店,8380141,40,小郡市,小郡385-1,0942412185
61841,大刀洗店,8380823,40,朝倉郡,筑前町山隈1609-1,0946215066
61872,上曽根店,8000215,40,北九州市,小倉南区上曽根新町10-7,0934743260
61971,南里店,8112207,40,糟屋郡,志免町南里6丁目24-1,0929350055
61995,水巻店,8070006,40,遠賀郡,水巻町梅ノ木団地35-1,0932025511
62091,ひびきの店,8070807,40,北九州市,八幡西区本城学研台1丁目4-3,0936952325
62244,津福店,8300061,40,久留米市,津福今町605-9,0942362766
62275,伊都店,8190367,40,福岡市,西区西都1丁目7-26,0928053088
62305,篠栗店,8112412,40,糟屋郡,篠栗町乙犬981-1,0929315805
62329,八女本町店,8340031,40,八女市,本町2-114,0943302929
62367,西浜田店,8360027,40,大牟田市,西浜田町17-2,0944592755
62411,直方感田店,8220001,40,直方市,感田1781-17,0949296000
62459,横代店,8020821,40,北九州市,小倉南区横代北町3丁目16-16,0939651300
62473,大川店,8310031,40,大川市,上巻245-1,0944894595
62480,白水ヶ丘店,8160845,40,春日市,白水ヶ丘3丁目14,0929153115
62534,苅田店,8000313,40,京都郡,苅田町磯浜町1丁目12-5,0934353281
62541,柚須店,8112304,40,糟屋郡,粕屋町仲原2815-1,0926268710
62596,御笠川店,8160912,40,大野城市,御笠川4丁目11-10,0925139577
62619,八女店,8340066,40,八女市,室岡43,0943303411
62640,筑後和泉店,8330041,40,筑後市,和泉98,0942517266
62671,古賀店,8113112,40,古賀市,花見東1丁目15-14,0929404377
62732,長尾店,8140123,40,福岡市,城南区長尾2丁目8-6,0925335611
62787,川崎店,8270002,40,田川郡,川崎町池尻438-2,0947491440
62855,東入部店,8111102,40,福岡市,早良区東入部3丁目2-7,0928728066
62886,岸の浦店,8060034,40,北九州市,八幡西区岸の浦1丁目12-30,0936328255
62947,陣原駅店,8070821,40,北九州市,八幡西区陣原3丁目24-7,0936443305
63005,筑後店,8330002,40,筑後市,前津341-1,0942421133
63029,紅梅店,8060011,40,北九州市,八幡西区紅梅1丁目11-9,0936228861
63043,宮田店,8230001,40,宮若市,龍徳1038,0949341203
63098,平島店,8300047,40,久留米市,津福本町1005-1,0942369177
63104,美鈴の杜店,8380108,40,小郡市,美鈴の杜2丁目2-7,0942230211
63241,前原店,8191118,40,糸島市,前原北4丁目15-30,0923214166
63333,伊岐須店,8200053,40,飯塚市,伊岐須130-2,0948262577
63357,東油山店,8140155,40,福岡市,城南区東油山1丁目36-8,0928745115
63371,那珂店,8120893,40,福岡市,博多区那珂5丁目1-27,0924773440
63395,枝光店,8050002,40,北九州市,八幡東区枝光2丁目7-18,0936715531
63425,二日市駅店,8180072,40,筑紫野市,二日市中央1丁目5-43,0929196011
63470,桧原店,8111355,40,福岡市,南区桧原1丁目35-5,0925541350
63531,姪浜駅前店,8190002,40,福岡市,西区姪の浜4丁目22-4,0928941007
63548,浮羽店,8391306,40,うきは市,吉井町新治215-1,0943745010
63555,北湊店,8080027,40,北九州市,若松区北湊町4-21,0937512885
63579,柏の森店,8200011,40,飯塚市,柏の森607-3,0948262575
63586,下大利店,8160941,40,大野城市,東大利2丁目5-7,0925811080
63609,パセオ店,8150063,40,福岡市,南区柳河内1丁目2-2,0925549510
63616,東光寺店,8120896,40,福岡市,博多区東光寺町1丁目9-7,0924732330
63654,久留米国分店,8390863,40,久留米市,国分町1179-10,0942510660
63661,吉井店,8391342,40,うきは市,吉井町生葉731,0943742030
63692,直方下境店,8220007,40,直方市,下境3280-1,0949221200
63753,朝日ヶ丘店,8030833,40,北九州市,小倉北区朝日ヶ丘10-12,0935627811
63807,南風台店,8191137,40,糸島市,南風台6丁目3-3,0923297055
63814,小森野店,8300001,40,久留米市,小森野5丁目2-10,0942461414
63876,柳川三橋店,8320827,40,柳川市,三橋町蒲船津1401-9,0944776181
63890,原中央店,8140022,40,福岡市,早良区原3丁目14-1,0928332190
63906,稲築店,8200203,40,嘉麻市,平1619,0948838007
64118,井尻店,8111302,40,福岡市,南区井尻1丁目23-1,0925883620
64170,吉田南店,8070048,40,遠賀郡,水巻町吉田南1丁目4-12,0932035160
64217,神松寺店,8140121,40,福岡市,城南区神松寺1丁目22-29,0928745066
64224,善導寺店,8390824,40,久留米市,善導寺町飯田513-1,0942415797
64279,与原店,8000323,40,京都郡,苅田町与原1丁目1-2,0930267051
64361,北野店,8301114,40,久留米市,北野町高良1470-1,0942231031
64392,藤吉店,8320824,40,柳川市,三橋町藤吉87,0944755230
64446,にれの木店,8000210,40,北九州市,小倉南区吉田にれの木坂2丁目1-5,0934746116
64460,柳河店,8320806,40,柳川市,三橋町柳河848,0944748008
64477,長者原店,8112316,40,糟屋郡,粕屋町長者原西4丁目10-15,0926521220
64781,近大前店,8200011,40,飯塚市,柏の森1-40,0948267111
64798,碓井店,8200502,40,嘉麻市,上臼井334-4,0948201020
64828,水城店,8180131,40,太宰府市,水城2丁目9-1,0929187725
64835,椎田店,8290342,40,築上郡,築上町東八田612-1,0930575055
64989,赤池店,8221101,40,田川郡,福智町赤池948-1,0947475211
65061,黒木店,8341213,40,八女市,黒木町本分1219-1,0943312550
65214,くりえいと宗像店,8114184,40,宗像市,くりえいと3丁目3-10,0940388897
65221,門司西海岸店,8010841,40,北九州市,門司区西海岸2丁目4-5,0933221220
65306,中鶴店,8090037,40,中間市,中鶴4丁目7-1,0932434120
65320,三輪店,8380068,40,朝倉市,甘木2341-6,0946215120
65337,福岡空港東店,8112205,40,糟屋郡,志免町別府4丁目24-1,0929376136
65351,名子店,8130024,40,福岡市,東区名子3丁目5-32,0926745385
65535,福間駅前店,8113209,40,福津市,日蒔野1丁目1-4,0940358166
65580,羽山台店,8370925,40,大牟田市,白川574-1,0944591519
65627,みづま店,8300114,40,久留米市,三潴町福光470-1,0942549202
65733,新宮店,8110117,40,糟屋郡,新宮町上府1704,0929406697
65870,後藤寺店,8260021,40,田川市,桜町3-33,0947507048
65948,宇美井野店,8112104,40,糟屋郡,宇美町井野528-2,0929576085
65979,合川店,8390861,40,久留米市,合川町1672-1,0942461271
66051,八屋店,8280021,40,豊前市,八屋189-1,0979840031
66068,古賀中央店,8113102,40,古賀市,駅東1丁目4-1,0929401367
66075,北方店,8020841,40,北九州市,小倉南区北方3丁目58-16,0939322012
66129,守恒店,8020971,40,北九州市,小倉南区守恒本町3丁目2-5,0939656087
66181,春日宝町店,8160874,40,春日市,大和町4丁目36,0925889355
66235,吉富店,8710811,40,築上郡,吉富町広津737-1,0979850557
66273,須恵店,8112221,40,糟屋郡,須恵町旅石872-1,0929312001
66303,学研西店,8080139,40,北九州市,若松区小敷ひびきの2丁目17-8,0937426181
66358,夜須店,8380224,40,朝倉郡,筑前町松延507,0946263025
66365,板付店,8120888,40,福岡市,博多区板付6丁目11-5,0925131018
66396,鞍手店,8071312,40,鞍手郡,鞍手町中山2257-2,0949431062
66433,泉台店,8030842,40,北九州市,小倉北区泉台2丁目17-7,0936541021
66457,堀池店,8200070,40,飯塚市,堀池105-1,0948262273
66464,一木店,8310034,40,大川市,一木720-1,0944895050
66471,瀬高店,8350022,40,みやま市,瀬高町文廣1624-1,0944675050
66587,甘木インター店,8380068,40,朝倉市,甘木419-2,0946261030
66594,浦志店,8191112,40,糸島市,浦志2丁目14-14,0923311060
66730,那珂川店,8111251,40,那珂川市,松木6丁目12-10,0929515030
66747,筑穂店,8200702,40,飯塚市,平塚294-1,0948203088
66761,広川店,8340115,40,八女郡,広川町新代660-1,0943334008
67027,東田店,8050071,40,北九州市,八幡東区東田2丁目1-20,0936636008
67058,的場店,8111314,40,福岡市,南区的場1丁目20-7,0925886022
67072,三筑店,8120887,40,福岡市,博多区三筑2丁目1-7,0925131255
67171,石崎店,8180068,40,筑紫野市,石崎1丁目3-17,0929175077
67249,行橋中央店,8240006,40,行橋市,門樋町7-46,0930268830
67317,筑後熊野店,8330055,40,筑後市,熊野78-2,0942517218
67386,福岡芦屋店,8070141,40,遠賀郡,芦屋町山鹿31-18,0932211511
67447,納楚店,8340004,40,八女市,納楚594,0943252012
67461,勝立店,8360896,40,大牟田市,天道町200-10,0944591015
67485,春日台店,8070844,40,北九州市,八幡西区春日台6丁目7-25,0936143315
67560,古前店,8080066,40,北九州市,若松区くきのうみ中央1-37,0937522215
67652,曽根北店,8000229,40,北九州市,小倉南区曽根北町6-10,0934746651
67898,四王寺坂店,8112132,40,糟屋郡,宇美町原田2丁目1-1,0929576001
67935,加布里店,8191124,40,糸島市,加布里31-1,0923213001
68031,竹末店,8060045,40,北九州市,八幡西区竹末1丁目19-8,0936447748
68062,国分バイパス店,8390863,40,久留米市,国分町822-2,0942512004
68239,花瀬店,8200044,40,飯塚市,横田599,0948303160
68246,紫店,8180061,40,筑紫野市,紫3丁目5-8,0929195002
68390,乙金店,8160902,40,大野城市,乙金3丁目21番1号,0925139015
68437,糸島店,8191118,40,糸島市,前原北2丁目5-8,0923318007
68468,西宮市店,8240001,40,行橋市,行事7丁目3-22,0930269001
68574,波多江駅店,8191107,40,糸島市,波多江駅北4丁目9-3,0923299060
68635,足立店,8020016,40,北九州市,小倉北区宇佐町2丁目1-15,0935127808
68642,大木町店,8300417,40,三潴郡,大木町上八院1735-1,0944752388
68864,今川店,8240037,40,行橋市,矢留822,0930269615
70720,脇本店,8991131,46,阿久根市,脇本7502-1,0996643333
70812,米ノ津店,8990121,46,出水市,米ノ津町515,0996648123
71017,指宿西方店,8910311,46,指宿市,西方1595,0993241805
71024,川内宮内店,8950065,46,薩摩川内市,宮内町2440,0996276210
71109,大根占店,8932303,46,肝属郡,錦江町馬場351-1,0994283011
71284,東串良店,8931612,46,肝属郡,東串良町池之原2605-1,0994628583
71321,市来店,8992103,46,いちき串木野市,大里6204,0996215173
71369,国分店,8994332,46,霧島市,国分中央3丁目39-27,0995485665
71390,隼人店,8995102,46,霧島市,隼人町真孝45,0995448051
71529,川内平佐店,8950012,46,薩摩川内市,平佐町2092-1,0996207810
71611,枕崎店,8980062,46,枕崎市,寿町30,0993735020
71659,鹿屋共栄店,8930005,46,鹿屋市,共栄町21-1,0994427345
71680,宮之城店,8951816,46,薩摩郡,さつま町時吉239-1,0996213411
71758,松木店,8994332,46,霧島市,国分中央5丁目18-36,0995486035
71833,川辺店,8970221,46,南九州市,川辺町田部田6559,0993583926
71888,伊集院店,8992502,46,日置市,伊集院町徳重110,0992720433
71901,加世田店,8970031,46,南さつま市,加世田東本町4-13,0993521164
71932,下福元店,8910151,46,鹿児島市,光山2丁目3-47,0992846219
72007,東郡元店,8900068,46,鹿児島市,東郡元町11-1,0992142723
72106,加治木店,8995241,46,姶良市,加治木町木田2553-7,0995638532
72113,姶良店,8995421,46,姶良市,東餅田1772,0995645214
72137,阿久根店,8991611,46,阿久根市,赤瀬川1279-1,0996725154
72151,末吉店,8998605,46,曽於市,末吉町二之方5130-2,0986288409
72168,出水店,8990212,46,出水市,上知識町779,0996637314
72199,頴娃店,8910702,46,南九州市,頴娃町牧之内2111-1,0993273102
72373,見次店,8995117,46,霧島市,隼人町見次323,0995447148
72434,鹿児島宇宿店,8900073,46,鹿児島市,宇宿9丁目10-1,0992759205
72571,花棚店,8920877,46,鹿児島市,吉野1丁目20-23,0992957265
72625,東開店,8910115,46,鹿児島市,東開町5-10,0992636157
72816,大口店,8952511,46,伊佐市,大口里573-1,0995235433
72861,川内中郷店,8950072,46,薩摩川内市,中郷1丁目39-9,0996208911
72915,国分清水店,8994352,46,霧島市,国分向花139-1,0995489277
72939,上福元店,8910116,46,鹿児島市,上福元町6353,0992636770
72953,中山店,8910113,46,鹿児島市,東谷山7丁目23-11,0992699370
73011,笠之原店,8930023,46,鹿屋市,笠之原町29-18,0994407188
73059,湯の浜店,8910403,46,指宿市,十二町3647-1,0993221770
73417,卸本町店,8910123,46,鹿児島市,卸本町6-2,0992635507
73516,重富店,8995652,46,姶良市,平松2878-13,0995676060
73769,甲突店,8920838,46,鹿児島市,新屋敷町31-13,0992195096
73882,串木野店,8960055,46,いちき串木野市,照島5023-1,0996335510
73967,谷山店,8910114,46,鹿児島市,小松原2丁目15-20,0992631031
74292,吉野店,8920871,46,鹿児島市,吉野町2072-1,0992957032
74698,川上店,8920875,46,鹿児島市,川上町2750-3,0992955247
75473,志布志中央店,8997103,46,志布志市,志布志町志布志3丁目15-10,0994728660
75787,川西店,8930032,46,鹿屋市,川西町3744-1,0994407620
76333,北指宿店,8910304,46,指宿市,東方10839-3,0993279000
76418,御陵下店,8950061,46,薩摩川内市,御陵下町7-57,0996207822
77200,鹿屋寿店,8930014,46,鹿屋市,寿4丁目3-4,0994427051
77743,出水野田店,8990501,46,出水市,野田町上名496,0996649191
77903,下伊敷店,8900005,46,鹿児島市,下伊敷1丁目52-10,0992184311
78139,出水黄金店,8990125,46,出水市,黄金町483-1,0996637200
78252,西之表店,8913101,46,西之表市,西之表16065-8,0997235177
78566,中種子店,8913604,46,熊毛郡,中種子町野間5108-21,0997242228
78610,栗野店,8996207,46,姶良郡,湧水町米永585-2,0995541688
80798,国見店,8591306,42,雲仙市,国見町神代己303-1,0957653051
81061,島原店,8550031,42,島原市,前浜町35-1,0957650266
81276,東諫早店,8590311,42,諫早市,小豆崎町188,0957355777
81382,大村古賀島店,8560817,42,大村市,古賀島町1770-1,0957485758
81436,波佐見店,8593715,42,東彼杵郡,波佐見町宿郷401-2,0956267588
81535,川副店,8402205,41,佐賀市,川副町南里304-1,0952349521
81573,愛野店,8540302,42,雲仙市,愛野町乙2295-1,0957367010
81603,伊万里店,8480022,41,伊万里市,大坪町乙3-6,0955249731
81702,江北店,8490502,41,杵島郡,江北町佐留志1942-1,0952716368
81740,北茂安店,8490111,41,三養基郡,みやき町白壁1023-1,0942899822
81795,時津店,8512108,42,西彼杵郡,時津町日並郷1322-8,0958132122
81962,武雄店,8430024,41,武雄市,武雄町大字富岡12520-2,0954201300
82082,大村店,8560820,42,大村市,協和町628-2,0957207111
82310,木風店,8571166,42,佐世保市,木風町1454-1,0956208433
82440,布巻店,8510403,42,長崎市,布巻町843-1,0958923221
82563,鍋島店,8490937,41,佐賀市,鍋島2丁目3-18,0952367888
82686,佐賀兵庫店,8490919,41,佐賀市,兵庫北2丁目18-1,0952365665
82761,有家店,8592205,42,南島原市,有家町小川369,0957768180
82839,鳥栖今泉店,8410047,41,鳥栖市,今泉町2260-1,0942811715
82891,伊万里中央店,8480031,41,伊万里市,二里町八谷搦15-34,0955201030
83126,佐々店,8570351,42,北松浦郡,佐々町須崎免491-4,0956401700
83157,長野店,8540036,42,諫早市,長野町1496,0957354333
83188,基山店,8410202,41,三養基郡,基山町長野995-1,0942817080
83324,多久店,8460003,41,多久市,北多久町多久原790-1,0952749009
83461,鹿島店,8491311,41,鹿島市,高津原3752-11,0954697611
83485,神埼店,8420006,41,神埼市,神埼町枝ヶ里44-3,0952511288
83782,小城店,8450002,41,小城市,小城町畑田2467-1,0952737447
83799,佐賀有田店,8440023,41,西松浦郡,有田町丸尾丙1945,0955419100
83959,幸町店,8540022,42,諫早市,幸町305-1,0957329100
83973,巨勢店,8400008,41,佐賀市,巨勢町牛島356-1,0952277488
83980,開成店,8490934,41,佐賀市,開成6丁目7-1,0952369700
84109,松浦店,8594501,42,松浦市,志佐町浦免992-1,0956730511
84208,町田店,8470821,41,唐津市,町田1丁目15-12,0955701020
84284,天祐店,8400851,41,佐賀市,天祐1丁目5-10,0952417575
84338,福田店,8500067,42,長崎市,小浦町714-8,0958344811
84413,矢上店,8510136,42,長崎市,平間町334-1,0958320031
84451,高木瀬店,8490917,41,佐賀市,高木瀬町長瀬972,0952368377
84567,嬉野店,8430301,41,嬉野市,嬉野町下宿甲3645-2,0954204077
84710,佐賀末広店,8400032,41,佐賀市,末広2丁目9-11,0952271012
84741,白石店,8491203,41,杵島郡,白石町戸ヶ里1891-5,0954658411
84949,唐津鏡店,8470022,41,唐津市,鏡3088,0955776501
84970,高来店,8590144,42,諫早市,高来町溝口154,0957348033
85014,加津佐店,8592605,42,南島原市,加津佐町乙395,0957752050
85076,溝陸店,8560844,42,大村市,溝陸町999-1,0957485700
85090,日野店,8580923,42,佐世保市,日野町1938-1,0956292020
85267,西海店,8513505,42,西海市,西海町太田和郷3296-23,0959369560
85311,田町店,8550034,42,島原市,田町677-1,0957654088
85366,牛津店,8490311,41,小城市,芦刈町芦溝162-3,0952638181
85656,京泊店,8512206,42,長崎市,三京町646-33,0958609010
85939,新鳥栖駅店,8410071,41,鳥栖市,原古賀町3023,0942871301
86134,萩原店,8550851,42,島原市,萩原2丁目5185,0957687060
86493,安中店,8550876,42,島原市,南安徳町丁4436,0957650303
86509,鹿島南店,8491312,41,鹿島市,納富分4344,0954695110
86721,池田店,8560026,42,大村市,池田1丁目39-2,0957496680
86806,ダイヤランド店,8500963,42,長崎市,ダイヤランド2丁目19-17,0958335020
86868,相知店,8493219,41,唐津市,相知町鷹取1905-2,0955518008
86912,宮小路店,8560807,42,大村市,宮小路3丁目1033,0957288860
86974,井手店,8491302,41,鹿島市,井手814-1,0954695677
87094,養父店,8410055,41,鳥栖市,養父町479,0942875550
87391,諸富店,8402106,41,佐賀市,諸富町山領1135-1,0952348122
87421,鹿町店,8596143,42,佐世保市,鹿町町深江潟258-1,0956731055
87490,平戸店,8595121,42,平戸市,岩の上町392-6,0950200051
87582,佐志店,8470102,41,唐津市,八幡町523,0955658355
87704,雲仙市役所前店,8591107,42,雲仙市,吾妻町牛口名706,0957369011
87988,中里店,8580903,42,佐世保市,上本山町856-1,0956410888
88046,平瀬店,8500985,42,長崎市,平瀬町1-43,0958345200
88428,和多田駅店,8470074,41,唐津市,和多田先石4番2-5号,0955701120
88442,川棚店,8593615,42,東彼杵郡,川棚町下組郷1961-2,0956277066
88510,下西山店,8430022,41,武雄市,武雄町武雄5737,0954268060
88534,早苗店,8593211,42,佐世保市,早苗町61-1,0956275500
88541,有明店,8591401,42,島原市,有明町湯江甲139-1,0957659811
88954,浜玉店,8495131,41,唐津市,浜玉町浜崎323-1,0955705811
91404,大内店,7530222,35,山口市,大内矢田南4丁目8-7,0839412061
91466,萩店,7580011,35,萩市,椿東2638-8,0838210588
91558,吉敷店,7530815,35,山口市,維新公園3丁目7-7,0839341853
91718,長門店,7594106,35,長門市,仙崎鳥越846-1,0837265002
91817,厚南店,7590204,35,宇部市,妻崎開作520-1,0836451918
91947,竹原店,7900053,38,松山市,竹原3丁目17-31,0899136060
92012,宇和島南店,7980085,38,宇和島市,宮下1314-1,0895266077
92029,下松店,7440022,35,下松市,せせらぎ町1丁目1-1,0833482050
92036,徳山駅店,7450044,35,周南市,千代田町11-1,0834333303
92043,伊予大洲店,7950065,38,大洲市,東若宮18-2,0893594155
92128,南末広店,7700865,36,徳島市,南末広町5-90,0886021172
92289,新山口駅店,7540020,35,山口市,小郡平成町1-31,0839760021
92340,豊浦店,7596301,35,下関市,豊浦町川棚6332,0837751010
92357,光店,7430046,35,光市,木園1丁目5-38,0833742010
92388,元山店,7610311,37,高松市,元山町673,0878152558
92494,柳井店,7420032,35,柳井市,古開作430-1,0820241110
92524,鳴門北店,7720011,36,鳴門市,撫養町大桑島濘岩浜12-16,0886831270
92609,善通寺店,7650040,37,善通寺市,与北町3322,0877565850
92630,ついたち店,7930027,38,西条市,朔日市236,0897525250
92654,古川店,7930044,38,西条市,古川甲126-1,0897520789
92661,国分寺店,7690102,37,高松市,国分寺町国分458-1,0878706105
92692,多肥上町店,7618076,37,高松市,多肥上町1182-1,0878151779
92715,矢原店,7530825,35,山口市,矢原町10-20,0839219910
92722,田布施店,7421517,35,熊毛郡,田布施町中央南2-7,0820512205
92746,北条店,7992430,38,松山市,北条辻1130,0899602535
92753,福山新涯店,7210955,34,福山市,新涯町2丁目8-12,0849815150
92791,備中高松店,7011335,33,岡山市,北区高松219-1,0862873080
92807,多度津店,7640026,37,仲多度郡,多度津町南鴨291,0877585771
92845,西ハゼ店,7618053,37,高松市,西ハゼ町120-2,0878645520
92906,石井店,7793223,36,名西郡,石井町高川原918-1,0886752633
92920,井原店,7150022,33,井原市,下出部町2丁目19-2,0866679677
92982,東予店,7991371,38,西条市,周布614-1,0898767377
92999,水島神田店,7128061,33,倉敷市,神田3丁目2-28,0864457122
93064,西大寺店,7048102,33,岡山市,東区久保163-1,0869446677
93118,辻町店,7900063,38,松山市,辻町15-8,0899110228
93149,藍住店,7711262,36,板野郡,藍住町笠木西野29-5,0886373315
93170,喜光地店,7920826,38,新居浜市,喜光地町2丁目9-12,0897316770
93200,郡家店,7630093,37,丸亀市,郡家町3430,0877582620
93255,宿毛店,7880009,39,宿毛市,駅東町1丁目714,0880620551
93279,三津浜駅店,7918076,38,松山市,会津町2-1,0899116165
93293,宇和店,7970046,38,西予市,宇和町上松葉654-1,0894627757
93347,小野田店,7560815,35,山陽小野田市,高栄1丁目8-5,0836812700
93385,深川店,7594101,35,長門市,東深川2306-4,0837232100
93491,下関大和町店,7500067,35,下関市,大和町2丁目1-11,0832615052
93507,鳴門南店,7720032,36,鳴門市,大津町吉永211,0886831517
93521,篠場店,7920836,38,新居浜市,篠場町6-36,0897403011
93637,新下関店,7510869,35,下関市,伊倉新町1丁目1-33,0832515888
93644,防府緑町店,7470026,35,防府市,緑町2丁目1-11,0835201621
93705,黄金店,7940037,38,今治市,黄金町2丁目1-3,0898345670
93712,三木店,7610704,37,木田郡,三木町下高岡2158,0878919811
93736,萩新川店,7580011,35,萩市,椿東3115-1,0838211170
93835,多治米店,7200824,34,福山市,多治米町2丁目10-15,0849203188
93842,伊予店,7993111,38,伊予市,下吾川985,0899467855
93859,観音寺店,7680070,37,観音寺市,南町2丁目3-10,0875576411
93910,東二見店,6740092,28,明石市,二見町東二見1105,0789421511
93927,赤磐店,7090812,33,赤磐市,沼田826-25,0869559770
93941,上板店,7711343,36,板野郡,上板町椎本583-5,0886376177
93996,桑山店,7470808,35,防府市,桑山2丁目12-34,0835271390
94122,引野店,7210942,34,福山市,引野町1丁目12-32,0849405750
94146,土山店,6700996,28,姫路市,土山5丁目6-47,0792995601
94191,鴨島店,7760013,36,吉野川市,鴨島町上下島松元427-1,0883242215
94245,恵美酒店,6728057,28,姫路市,飾磨区恵美酒215-4,0792431031
94252,周東店,7420417,35,岩国市,周東町下久原604-2,0827830230
94313,小松原店,7550066,35,宇部市,小松原町2丁目6-10,0836292030
94320,六条店,7610313,37,高松市,下田井町364-1,0878407130
94351,東野店,7900903,38,松山市,東野1丁目4-40,0899143080
94382,堀江店,7992651,38,松山市,堀江町甲336-1,0899118580
94429,貴崎店,6730037,28,明石市,貴崎5丁目6-38,0789261305
94436,屋島西町店,7610013,37,高松市,屋島西町1347-7,0878448160
94481,三田尻店,7470825,35,防府市,新田178-4,0835262611
94498,恩田店,7550023,35,宇部市,恩田町1丁目2-5,0836370870
94504,堂本店,6794129,28,たつの市,龍野町堂本399-1,0791644300
94511,戎町店,7470036,35,防府市,戎町1丁目11-15,0835275050
94535,青山店,6730521,28,三木市,志染町青山5丁目30-1,0794877030
94542,赤穂店,6780231,28,赤穂市,細野町35-1,0791460566
94559,国府店,7793118,36,徳島市,国府町井戸57-3,0886432125
94580,東出店,6711521,28,揖保郡,太子町東出90-1,0792766681
94610,鹿の子台店,6511514,28,神戸市,北区鹿の子台南町6丁目20-31,0789503161
94627,具同店,7870019,39,四万十市,具同2603,0880312270
94634,尾道東店,7290141,34,尾道市,高須町628-2,0848562717
94658,柳井東店,7420021,35,柳井市,柳井1557-2,0820240700
94665,邑久店,7014221,33,瀬戸内市,邑久町尾張123-1,0869225601
94672,八万店,7708074,36,徳島市,八万町下福万148-1,0886686712
94689,神戸学院大前店,6512113,28,神戸市,西区伊川谷町有瀬311-5,0789770831
94726,八本松店,7390142,34,東広島市,八本松東7丁目6-11,0824974415
94733,愛南店,7984110,38,南宇和郡,愛南町御荘平城3990-1,0895723012
94757,春日町店,7210907,34,福山市,春日町1丁目6-45,0849466477
94771,富士が丘店,6691547,28,三田市,富士が丘5-1,0795533411
94801,鯛浜店,7710204,36,板野郡,北島町鯛浜原171-2,0886973922
94849,喜田村店,7991502,38,今治市,喜田村2丁目309-1,0898366175
94856,すずかけ台店,6691322,28,三田市,すずかけ台1丁目14,0795611270
94863,綾川店,7612304,37,綾歌郡,綾川町萱原591-1,0878768610
94870,昭和町店,7700942,36,徳島市,昭和町8丁目87-1,0886113280
94887,北佐古店,7700011,36,徳島市,北佐古一番町4-16,0886343150
94894,北島店,7710205,36,板野郡,北島町江尻松ノ本5-24,0886973120
94900,土与丸店,7390003,34,東広島市,西条町土与丸1198-1,0824936668
94924,車尾店,6830006,31,米子市,車尾5丁目10-1,0859392058
94955,阿波店,7711703,36,阿波市,阿波町大道北132,0883356750
94962,西脇店,6770016,28,西脇市,高田井町46,0795250520
95020,東岐波店,7550241,35,宇部市,東岐波2171,0836592323
95037,安養寺店,7520962,35,下関市,長府安養寺1丁目3-13,0832410180
95051,両三柳店,6830853,31,米子市,両三柳45-1,0859381722
95105,井吹台店,6512244,28,神戸市,西区井吹台北町2丁目17-9,0789901661
95112,白浜店,6728021,28,姫路市,白浜町宇佐崎中1丁目68,0792471380
95129,清末店,7501163,35,下関市,清末千房2丁目8-6,0832813100
95136,高岡店,6930066,32,出雲市,高岡町649,0853247600
95150,さぬき豊中店,7691506,37,三豊市,豊中町本山甲855-1,0875566577
95174,三島宮川店,7990404,38,四国中央市,三島宮川1丁目2330-1,0896281075
95198,高松西町店,7600003,37,高松市,西町774-2,0878125250
95204,中吉田店,6980042,32,益田市,中吉田町1093-9,0856311241
95235,古坂店,6752303,28,加西市,北条町古坂7丁目33,0790437631
95242,菅原通店,6530015,28,神戸市,長田区菅原通7丁目41-1,0785796556
95259,備前店,7050021,33,備前市,西片上1406-42,0869636120
95280,萩南店,7580061,35,萩市,椿2438-3,0838242050
95341,山手店,7200092,34,福山市,山手町4丁目2-17,0849492121
95372,大田店,6940041,32,大田市,長久町長久イ588-1,0854840003
95389,住吉店,7700861,36,徳島市,住吉5丁目5-9,0886111710
95396,駅家店,7201132,34,福山市,駅家町倉光44-1,0849770102
95402,大林店,7730022,36,小松島市,大林町中新田77-1,0885357166
95419,西風新都店,7313167,34,広島市,安佐南区大塚西6丁目2-17,0828495202
95440,長洲本通店,6600803,28,尼崎市,長洲本通1丁目14-20,0648688777
95457,北畝店,7128032,33,倉敷市,北畝7丁目8-43,0864502828
95464,西江原店,7150006,33,井原市,西江原町1205-1,0866655252
95488,久米店,7450801,35,周南市,久米2890-1,0834363711
95501,保内店,7960202,38,八幡浜市,保内町宮内1番538-1,0894206577
95518,野間北店,6640875,28,伊丹市,野間北4丁目2-1,0727815031
95525,曽根店,6760082,28,高砂市,曽根町695,0794467066
95549,別所小林店,6730434,28,三木市,別所町小林734-768,0794811031
95556,御堂店,5710064,27,門真市,御堂町11-6,0669168211
95563,塩冶東店,6930022,32,出雲市,上塩冶町2674,0853248311
95570,内子店,7913301,38,喜多郡,内子町内子746,0893592307
95594,志度店,7692101,37,さぬき市,志度2336,0878945528
95617,福知山駅前店,6200045,26,福知山市,駅前町316,0773255557
95631,白枝店,6930006,32,出雲市,白枝町989-2,0853248050
95662,まんのう店,7660022,37,仲多度郡,まんのう町吉野下1069-1,0877588215
95686,JR朝霧駅前店,6730870,28,明石市,朝霧南町2丁目1-59,0789150701
95693,王子店,6751378,28,小野市,王子町152-1,0794649108
95709,児島店,7110931,33,倉敷市,児島赤崎1丁目19-52,0864728558
95747,斐川店,6990505,32,出雲市,斐川町上庄原1486,0853737100
95754,野里店,6700811,28,姫路市,野里147-2,0792262080
95792,音羽店,5720023,27,寝屋川市,音羽町7-10,0728303066
95808,出雲平田店,6910001,32,出雲市,平田町1647-2,0853637710
95815,熊野店,7314213,34,安芸郡,熊野町萩原7丁目11-8,0828205677
95846,洲本インター店,6560055,28,洲本市,大野1855,0799252622
95853,舞多聞店,6550051,28,神戸市,垂水区舞多聞西5丁目1-1,0787872131
95860,伊予新川店,7993111,38,伊予市,下吾川1760-1,0899467704
95884,倉敷駅前店,7100057,33,倉敷市,昭和2丁目1-16,0864357580
95891,佐方店,7380007,34,廿日市市,城内1丁目2-21,0829343880
95907,さぬき長尾店,7692302,37,さぬき市,長尾西759-4,0879523261
95914,須崎店,7850058,39,須崎市,桐間南98,0889400337
95952,喜連東店,5470021,27,大阪市,平野区喜連東1丁目4-2,0667607170
95969,東出雲店,6990112,32,松江市,東出雲町意宇東2丁目6-3,0852530051
95990,美祢店,7592212,35,美祢市,大嶺町東分1267-2,0837542070
96027,島頭店,5710016,27,門真市,島頭4丁目24-13,0728425060
96041,塩屋北店,6550861,28,神戸市,垂水区下畑町333-2,0787555611
96102,神門店,6930034,32,出雲市,"神門町1367-4""",0853247117
96140,蓮池店,7811105,39,土佐市,蓮池1160,0888285336
96157,摂津南店,5660045,27,摂津市,南別府町1-43,0648628900
96171,平川店,7530831,35,山口市,平井1216-1,0839218611
96201,板野店,7790108,36,板野郡,板野町犬伏字東12,0886375077
96218,二宮店,7080013,33,津山市,二宮1920-1,0868289588
96225,赤井店,5740062,27,大東市,氷野2丁目3-1,0728893177
96249,脇町店,7793601,36,美馬市,脇町拝原1706-1,0883536361
96256,日高店,7940065,38,今治市,別名375,0898316016
96263,明治町店,6840022,31,境港市,明治町122,0859471455
96287,古泉店,7460024,35,周南市,古泉1丁目2-22,0834610755
96294,大福店,7010204,33,岡山市,南区大福19-2,0862090303
96317,大久保店,6740059,28,明石市,大久保町茜3丁目2-7,0789370157
96324,白鳥店,7692705,37,東かがわ市,白鳥259-1,0879253220
96348,三豊詫間店,7691101,37,三豊市,詫間町詫間2087-1,0875565177
96379,金剛店,5890011,27,大阪狭山市,半田1丁目15,0723601880
96386,りんくう店,5980048,27,泉佐野市,りんくう往来北1-829,0724580601
96409,中沢店,7980081,38,宇和島市,中沢町2丁目3-5,0895266088
96485,世羅店,7221112,34,世羅郡,世羅町本郷960-1,0847250078
96546,鴻池徳庵店,5780977,27,東大阪市,鴻池徳庵町3-11,0667489977
96560,長吉六反店,5470012,27,大阪市,平野区長吉六反1丁目2-6,0643023080
96577,阿南店,7740013,36,阿南市,日開野町西居内421,0884243350
96614,西蒲田店,6711108,28,姫路市,広畑区城山町1400-87,0792304180
96638,野村店,7081116,33,津山市,野村304-4,0868296800
96645,安長店,6800913,31,鳥取市,安長260-1,0857205020
96652,城北高校前店,7700003,36,徳島市,北田宮4丁目8-8,0886342314
96669,向島店,7220073,34,尾道市,向島町5583-4,0848206505
96676,湯梨浜店,6820721,31,東伯郡,湯梨浜町田後534-1,0858355539
96690,阿品店,7380054,34,廿日市市,阿品2丁目26-16,0829364151
96706,赤岡店,7815310,39,香南市,赤岡町1890-1,0887542216
96713,高見店,5540001,27,大阪市,此花区高見1丁目3-91,0648045260
96775,中村店,7870015,39,四万十市,右山2036-45,0880347277
96812,花岡店,7440024,35,下松市,末武上1806-2,0833455038
96829,松花堂店,6148042,26,八幡市,八幡盛戸90,0759720122
96836,伯耆町店,6894121,31,西伯郡,伯耆町大殿706,0859686636
96850,牛島店,7760001,36,吉野川市,鴨島町牛島2970-9,0883221517
96959,大津新崎店,6930012,32,出雲市,大津新崎町5丁目9,0853248007
96966,上郡店,6781232,28,赤穂郡,上郡町竹万2281,0791572020
96980,王喜店,7501114,35,下関市,王喜本町4丁目3-19,0832812032
96997,薊野店,7810015,39,高知市,薊野西町1丁目30-10,0888459383
97031,さぬき大内店,7692512,37,東かがわ市,落合254-1,0879265121
97048,柏原店,6693309,28,丹波市,柏原町柏原2871-1,0795737066
97086,美原平尾店,5870022,27,堺市,美原区平尾380,0723692010
97109,安来店,6920011,32,安来市,安来町751-1,0854233555
97116,南淡店,6560511,28,南あわじ市,賀集八幡182-1,0799531012
97123,湯郷店,7070062,33,美作市,湯郷355-1,0868733700
97130,福崎店,6792203,28,神崎郡,福崎町南田原764-1,0790245560
97154,丸河内店,7560821,35,山陽小野田市,丸河内1032-5,0836813337
97192,宮浦店,7230051,34,三原市,宮浦6丁目17-16,0848613211
97215,七道東店,5900913,27,堺市,堺区七道東町182-1,0722255630
97222,四国中央店,7990101,38,四国中央市,川之江町253-1,0896591151
97239,東高泊店,7560088,35,山陽小野田市,東高泊1048-1,0836815477
97253,江陽小学校前店,7800056,39,高知市,北本町3丁目11-27,0888800001
97260,千代水店,6800911,31,鳥取市,千代水4丁目73,0857322203
97277,大竹店,7390601,34,大竹市,東栄1丁目1-12,0827540067
97338,東吹店,6692202,28,丹波篠山市,東吹1122,0795901161
97352,木太店,7600080,37,高松市,木太町1875-2,0878122345
97369,北日吉店,7940054,38,今治市,北日吉町3丁目5-51,0898337880
97406,西川津店,6900823,32,松江市,西川津町4096,0852602455
97413,壱分店,6300222,29,生駒市,壱分町81-22,0743762017
97451,福家店,7690103,37,高松市,国分寺町福家中福家甲3195-1,0878745006
97505,八雲中町店,5700005,27,守口市,八雲中町3丁目13-47,0667802355
97512,厚南北店,7590209,35,宇部市,厚南北1丁目4-7,0836450778
97529,三原本郷店,7290417,34,三原市,本郷南3丁目20-21,0848850776
97543,丹原店,7910502,38,西条市,丹原町願連寺223-1,0898762027
97550,南花内店,6392126,29,葛城市,南花内99,0745698009
97574,安来赤江店,6920001,32,安来市,赤江町1033,0854289112
97604,東雲店,7800805,39,高知市,東雲町3-10,0888836677
97628,田原本店,6360304,29,磯城郡,田原本町十六面22-1,0744346855
97666,我孫子店,5950031,27,泉大津市,我孫子112,0725205920
97673,院庄店,7080014,33,津山市,院庄959-7,0868287880
97680,連島店,7128011,33,倉敷市,連島町連島110-22,0864402300
97697,東日野店,5100942,24,四日市市,東日野町98-1,0593200555
97710,安芸高田店,7310501,34,安芸高田市,吉田町吉田169-1,0826474188
97727,安倉北店,6650821,28,宝塚市,安倉北3丁目8-10,0797853455
97734,和田山店,6695214,28,朝来市,和田山町桑原556,0796702111
97758,郷津店,5150002,24,松阪市,郷津町185,0598504747
97765,牟礼店,7610121,37,高松市,牟礼町牟礼956,0878701016
97772,稲葉店,5780925,27,東大阪市,稲葉3丁目1-19,0729603588
97802,高津店,6980041,32,益田市,高津町7丁目15-6,0856311107
97819,室の木店,7400021,35,岩国市,室の木町1丁目7-45,0827292771
97826,夏見店,5203223,25,湖南市,夏見2131,0748712468
97833,安八店,5030117,21,安八郡,安八町大明神251-1,0584630170
97840,市場店,7711603,36,阿波市,市場町市場岸ノ下159-2,0883266062
97857,落合店,7193111,33,真庭市,開田336-4,0867527272
97864,焼山北店,7370911,34,呉市,焼山北3丁目1-20,0823306776
97871,皆生店,6830801,31,米子市,新開1丁目4-35,0859388008
97925,中河原店,5140018,24,津市,中河原247,0592216502
97963,上牧店,6390214,29,北葛城郡,上牧町上牧3055-1,0745715158
97970,西岐波店,7550151,35,宇部市,西岐波2449-1,0836540505
97994,山崎インター店,6712541,28,宍粟市,山崎町下広瀬104-1,0790643351
98007,砥堀店,6700802,28,姫路市,砥堀1222-1,0792639511
98014,多可店,6791124,28,多可郡,多可町中区森本171-1,0795325051
98021,新見店,7180013,33,新見市,正田319-1,0867715500
98052,渡橋店,6930004,32,出雲市,渡橋町472,0853248088
98076,十日市店,7280011,34,三次市,十日市西6丁目8-13,0824648188
98090,中田駅店,7730016,36,小松島市,中郷町西野1-26,0885350159
98106,北原店,6728002,28,姫路市,北原553-1,0792470020
98113,目久美店,6830035,31,米子市,目久美町244-1,0859365080
98120,畠敷店,7280006,34,三次市,畠敷町377-1,0824656711
98144,荘内店,7060151,33,玉野市,長尾345,0863715560
98151,桜が丘店,7090721,33,赤磐市,桜が丘東5丁目820-3,0869959595
98168,下井阪店,6496426,30,紀の川市,下井阪458,0736781955
98175,今治阿方店,7940081,38,今治市,阿方甲504-1,0898338156
98199,宝田店,7740045,36,阿南市,宝田町平岡850-1,0884243365
98229,植松店,7470836,35,防府市,植松831,0835272011
98281,長門市駅店,7594101,35,長門市,東深川949-1,0837230335
98298,桜井大福店,6330067,29,桜井市,大福1259,0744492227
98304,遠石店,7450817,35,周南市,上遠石町1-22,0834333577
98328,宇和島北店,7980022,38,宇和島市,伊吹町甲1410-7,0895200150
98342,南松永店,7290105,34,福山市,南松永町3丁目4-15,0849306018
98359,寺家店,7390041,34,東広島市,西条町寺家5016-1,0824936818
98366,末永店,5100815,24,四日市市,野田1丁目2番24-1,0593348147
98380,松茂店,7710212,36,板野郡,松茂町中喜来稲本217-1,0886990260
98403,神原店,7550022,35,宇部市,神原町2丁目1-8,0836372235
98410,安曇川店,5201212,25,高島市,安曇川町西万木193,0740326020
98458,今治石井店,7940006,38,今治市,石井町1丁目4-18,0898337266
98472,府中店,7793122,36,徳島市,国府町府中730-1,0886372210
98489,庄原店,7270021,34,庄原市,三日市町667-1,0824754471
98496,高梁店,7160061,33,高梁市,落合町阿部808-1,0866227600
98502,御膳松店,6408404,30,和歌山市,湊1827-9,0734806263
98526,亀山店,7310231,34,広島市,安佐北区亀山2丁目10-12,0828192907
98557,豊郷店,5291175,25,犬上郡,豊郷町沢179-4,0749350050
98588,秋根東店,7510877,35,下関市,秋根東町7-17,0832636336
98595,ベルロード店,5220041,25,彦根市,平田町546,0749301560
98601,三日市店,5130803,24,鈴鹿市,三日市町1837-22,0593755707
98625,琴浦店,6892302,31,東伯郡,琴浦町丸尾116-1,0858532121
98656,祥栄店,6018344,26,京都市,南区吉祥院蒔絵町26,0756939666
98663,志筑店,6562131,28,淡路市,志筑天神1359-1,0799620081
98670,太子いかるが店,6711561,28,揖保郡,太子町鵤1140-1,0792750556
98687,可部南店,7310223,34,広島市,安佐北区可部南2丁目24-27,0828191231
98700,長府店,7520928,35,下関市,長府才川1丁目57-5,0832491223
98717,天理田町店,6320073,29,天理市,田町196-1,0743694255
98724,川下店,7400027,35,岩国市,中津町3丁目5-5,0827307811
98731,桜井店,7991521,38,今治市,古国分1丁目1-40,0898366625
98748,矢掛店,7141222,33,小田郡,矢掛町西川面271-1,0866825110
98755,秋篠店,6310811,29,奈良市,秋篠町1348-1,0742533162
98762,東員店,5110241,24,員弁郡,東員町鳥取418,0594861520
98779,真正店,5010471,21,本巣市,政田1330,0583200063
98793,御津店,7092121,33,岡山市,北区御津宇垣1504-1,0867243737
98809,田村店,7630071,37,丸亀市,田村町841-3,0877581005
98816,土佐清水店,7870334,39,土佐清水市,加久見入沢町1-3,0880823170
98823,木次店,6991333,32,雲南市,木次町下熊谷1476-1,0854428045
98847,貴志川店,6400413,30,紀の川市,貴志川町神戸34-2,0736652717
98854,彩都店,5620028,27,箕面市,彩都粟生南2丁目13-9,0727492017
98878,中黒店,6496248,30,岩出市,中黒264-1,0736691301
98885,砥部店,7912120,38,伊予郡,砥部町宮内853,0899607067
98892,明洋店,6460058,30,田辺市,目良3-25,0739233949
98922,安浦店,7372515,34,呉市,安浦町中央北2丁目12-7,0823706160
98939,三原店,6560472,28,南あわじ市,市善光寺26-25,0799424300
98946,氷上店,6693461,28,丹波市,氷上町市辺52-1,0795820066
98960,八鹿店,6670021,28,養父市,八鹿町八鹿1927,0796631161
98977,高瀬店,7670011,37,三豊市,高瀬町下勝間1662-1,0875562014
98984,蒲生日野店,5291641,25,蒲生郡,日野町日田65,0748529710
98991,福山大門店,7210926,34,福山市,大門町1丁目35-21,0849406370
